{
  "links" : {
    "next" : "https://api.nasa.gov/neo/rest/v1/feed?start_date=1999-10-09&end_date=1999-10-09&detailed=true&api_key=t0TVs3DtDT2H8Oy2Zy8m2eVrNsAVKAexjcZXUckd",
    "prev" : "https://api.nasa.gov/neo/rest/v1/feed?start_date=1999-10-07&end_date=1999-10-07&detailed=true&api_key=t0TVs3DtDT2H8Oy2Zy8m2eVrNsAVKAexjcZXUckd",
    "self" : "https://api.nasa.gov/neo/rest/v1/feed?start_date=1999-10-08&end_date=1999-10-08&detailed=true&api_key=t0TVs3DtDT2H8Oy2Zy8m2eVrNsAVKAexjcZXUckd"
  },
  "element_count" : 7,
  "near_earth_objects" : {
    "1999-10-08" : [ {
      "links" : {
        "self" : "https://api.nasa.gov/neo/rest/v1/neo/2162361?api_key=t0TVs3DtDT2H8Oy2Zy8m2eVrNsAVKAexjcZXUckd"
      },
      "neo_reference_id" : "2162361",
      "name" : "162361 (2000 AF6)",
      "nasa_jpl_url" : "http://ssd.jpl.nasa.gov/sbdb.cgi?sstr=2162361",
      "absolute_magnitude_h" : 20.2,
      "estimated_diameter" : {
        "kilometers" : {
          "estimated_diameter_min" : 0.2424124811,
          "estimated_diameter_max" : 0.5420507863
        },
        "meters" : {
          "estimated_diameter_min" : 242.4124811008,
          "estimated_diameter_max" : 542.0507863358
        },
        "miles" : {
          "estimated_diameter_min" : 0.1506280858,
          "estimated_diameter_max" : 0.3368146392
        },
        "feet" : {
          "estimated_diameter_min" : 795.3165644948,
          "estimated_diameter_max" : 1778.3819018419
        }
      },
      "is_potentially_hazardous_asteroid" : true,
      "close_approach_data" : [ {
        "close_approach_date" : "1999-10-08",
        "epoch_date_close_approach" : 939366000000,
        "relative_velocity" : {
          "kilometers_per_second" : "11.3340076889",
          "kilometers_per_hour" : "40802.4276799806",
          "miles_per_hour" : "25353.0417992635"
        },
        "miss_distance" : {
          "astronomical" : "0.3847101383",
          "lunar" : "149.6522369385",
          "kilometers" : "57551816",
          "miles" : "35761040"
        },
        "orbiting_body" : "Earth"
      } ],
      "orbital_data" : {
        "orbit_id" : "81",
        "orbit_determination_date" : "2017-04-06 09:26:32",
        "orbit_uncertainty" : "0",
        "minimum_orbit_intersection" : ".0236921",
        "jupiter_tisserand_invariant" : "6.676",
        "epoch_osculation" : "2458000.5",
        "eccentricity" : ".4113817336576461",
        "semi_major_axis" : ".877764525963731",
        "inclination" : "2.696580874309327",
        "ascending_node_longitude" : "110.7848127652395",
        "orbital_period" : "300.3761626076436",
        "perihelion_distance" : ".5166682335295893",
        "perihelion_argument" : "200.1425063318039",
        "aphelion_distance" : "1.238860818397873",
        "perihelion_time" : "2458042.276309813412",
        "mean_anomaly" : "309.9312082481288",
        "mean_motion" : "1.19849723385087",
        "equinox" : "J2000"
      }
    }, {
      "links" : {
        "self" : "https://api.nasa.gov/neo/rest/v1/neo/2237442?api_key=t0TVs3DtDT2H8Oy2Zy8m2eVrNsAVKAexjcZXUckd"
      },
      "neo_reference_id" : "2237442",
      "name" : "237442 (1999 TA10)",
      "nasa_jpl_url" : "http://ssd.jpl.nasa.gov/sbdb.cgi?sstr=2237442",
      "absolute_magnitude_h" : 18.1,
      "estimated_diameter" : {
        "kilometers" : {
          "estimated_diameter_min" : 0.6376097899,
          "estimated_diameter_max" : 1.4257388333
        },
        "meters" : {
          "estimated_diameter_min" : 637.6097898754,
          "estimated_diameter_max" : 1425.7388332807
        },
        "miles" : {
          "estimated_diameter_min" : 0.3961922327,
          "estimated_diameter_max" : 0.8859127646
        },
        "feet" : {
          "estimated_diameter_min" : 2091.8957030147,
          "estimated_diameter_max" : 4677.6209937807
        }
      },
      "is_potentially_hazardous_asteroid" : false,
      "close_approach_data" : [ {
        "close_approach_date" : "1999-10-08",
        "epoch_date_close_approach" : 939366000000,
        "relative_velocity" : {
          "kilometers_per_second" : "10.8160980754",
          "kilometers_per_hour" : "38937.9530712856",
          "miles_per_hour" : "24194.5297847663"
        },
        "miss_distance" : {
          "astronomical" : "0.3922875794",
          "lunar" : "152.5998687744",
          "kilometers" : "58685388",
          "miles" : "36465408"
        },
        "orbiting_body" : "Earth"
      } ],
      "orbital_data" : {
        "orbit_id" : "105",
        "orbit_determination_date" : "2017-04-06 09:25:04",
        "orbit_uncertainty" : "0",
        "minimum_orbit_intersection" : ".305209",
        "jupiter_tisserand_invariant" : "4.431",
        "epoch_osculation" : "2458000.5",
        "eccentricity" : ".2415533788519189",
        "semi_major_axis" : "1.505791930494593",
        "inclination" : "20.84412196540054",
        "ascending_node_longitude" : "214.6759556217876",
        "orbital_period" : "674.9100186254207",
        "perihelion_distance" : "1.14206280183567",
        "perihelion_argument" : "84.75624305744253",
        "aphelion_distance" : "1.869521059153515",
        "perihelion_time" : "2458108.207057778986",
        "mean_anomaly" : "302.5485772467766",
        "mean_motion" : ".5334044392068839",
        "equinox" : "J2000"
      }
    }, {
      "links" : {
        "self" : "https://api.nasa.gov/neo/rest/v1/neo/2401954?api_key=t0TVs3DtDT2H8Oy2Zy8m2eVrNsAVKAexjcZXUckd"
      },
      "neo_reference_id" : "2401954",
      "name" : "401954 (2002 RW25)",
      "nasa_jpl_url" : "http://ssd.jpl.nasa.gov/sbdb.cgi?sstr=2401954",
      "absolute_magnitude_h" : 18.8,
      "estimated_diameter" : {
        "kilometers" : {
          "estimated_diameter_min" : 0.4619074603,
          "estimated_diameter_max" : 1.0328564805
        },
        "meters" : {
          "estimated_diameter_min" : 461.9074602816,
          "estimated_diameter_max" : 1032.8564805039
        },
        "miles" : {
          "estimated_diameter_min" : 0.2870159005,
          "estimated_diameter_max" : 0.6417870641
        },
        "feet" : {
          "estimated_diameter_min" : 1515.4444719902,
          "estimated_diameter_max" : 3388.6368554964
        }
      },
      "is_potentially_hazardous_asteroid" : true,
      "close_approach_data" : [ {
        "close_approach_date" : "1999-10-08",
        "epoch_date_close_approach" : 939366000000,
        "relative_velocity" : {
          "kilometers_per_second" : "15.8243761192",
          "kilometers_per_hour" : "56967.7540292744",
          "miles_per_hour" : "35397.5469411344"
        },
        "miss_distance" : {
          "astronomical" : "0.3010372293",
          "lunar" : "117.103477478",
          "kilometers" : "45034528",
          "miles" : "27983158"
        },
        "orbiting_body" : "Earth"
      } ],
      "orbital_data" : {
        "orbit_id" : "34",
        "orbit_determination_date" : "2017-07-03 06:20:29",
        "orbit_uncertainty" : "1",
        "minimum_orbit_intersection" : ".0160302",
        "jupiter_tisserand_invariant" : "7.060",
        "epoch_osculation" : "2458000.5",
        "eccentricity" : ".286890658468444",
        "semi_major_axis" : ".8263226900946545",
        "inclination" : "1.327445308802628",
        "ascending_node_longitude" : "92.06991506419345",
        "orbital_period" : "274.3613582894533",
        "perihelion_distance" : ".5892584294259831",
        "perihelion_argument" : "71.73387784619896",
        "aphelion_distance" : "1.063386950763326",
        "perihelion_time" : "2458113.076318718553",
        "mean_anomaly" : "212.2843195144033",
        "mean_motion" : "1.312138131420815",
        "equinox" : "J2000"
      }
    } ]
  }
}